[
    {
        "Altitude(m)": 607886.667664217,
        "Argument of Periapsis(deg)": 0.0,
        "Eccentricity": 0.0,
        "Inclination(deg)": 60.0,
        "Latitude(deg)": 40.998379230998026,
        "Longitude(deg)": -60.02709017024071,
        "Mean Anomaly(deg)": 49.09089999999999,
        "RAAN(deg)": 10.0,
        "Satellite Name": "Test1 47",
        "Satellite Number": 47,
        "Semi-Major Axis(m)": 6980739.136638005,
        "Time(s)": 0
    },
    {
        "Altitude(m)": 607987.5819180758,
        "Argument of Periapsis(deg)": 0.00010418945913296404,
        "Eccentricity": 0.0,
        "Inclination(deg)": 60.0,
        "Latitude(deg)": 41.46347002672694,
        "Longitude(deg)": -59.52286394439756,
        "Mean Anomaly(deg)": 49.71100614546182,
        "RAAN(deg)": 9.999579950860259,
        "Satellite Name": "Test1 47",
        "Satellite Number": 47,
        "Semi-Major Axis(m)": 6980739.136638005,
        "Time(s)": 10
    }
]